STARLINK-30266          
1 57529U 23115J   26067.25161082  .00125986  00000+0  45460-2 0  9997
2 57529  43.0018   9.5251 0001763 256.7731 103.2924 15.27319514142136
HAWK-11C                
1 62381U 24247E   26068.51221537  .00009223  00000+0  33290-3 0  9992
2 62381  45.0045 114.8762 0005900 329.7040  30.3502 15.28848020 67743
